[{"OBJECT_NAME":"STARLINK-31453","OBJECT_ID":"2024-073M","EPOCH":"2026-03-09T00:13:37.241184","MEAN_MOTION":15.27584354,"ECCENTRICITY":0.00018128,"INCLINATION":43.0033,"RA_OF_ASC_NODE":304.0819,"ARG_OF_PERICENTER":268.3632,"MEAN_ANOMALY":91.7012,"EPHEMERIS_TYPE":0,"CLASSIFICATION_TYPE":"U","NORAD_CAT_ID":59522,"ELEMENT_SET_NO":999,"REV_AT_EPOCH":10627,"BSTAR":0.0010570329,"MEAN_MOTION_DOT":0.00028943,"MEAN_MOTION_DDOT":0},{"OBJECT_NAME":"CZ-6A DEB","OBJECT_ID":"2022-151EM","EPOCH":"2026-03-09T21:12:10.844640","MEAN_MOTION":15.1479521,"ECCENTRICITY":0.00732342,"INCLINATION":98.809,"RA_OF_ASC_NODE":212.6624,"ARG_OF_PERICENTER":10.5605,"MEAN_ANOMALY":349.714,"EPHEMERIS_TYPE":0,"CLASSIFICATION_TYPE":"U","NORAD_CAT_ID":54413,"ELEMENT_SET_NO":999,"REV_AT_EPOCH":17915,"BSTAR":0.0020661814,"MEAN_MOTION_DOT":0.00041137,"MEAN_MOTION_DDOT":0}]
